LEMUR-1                 
1 40044U 14033AL  26198.20513138  .00000727  00000+0  89273-4 0  9990
2 40044  97.7912 347.3507 0047561 341.2591  18.6872 14.85340073649923
LEMUR-2-GREENBERG       
1 42837U 17042N   26198.00619138  .00009191  00000+0  29800-3 0  9993
2 42837  97.3832  18.5143 0007259 251.9389 108.1062 15.32187524492955
LEMUR-2-ANDIS           
1 42838U 17042P   26197.44337105  .00012949  00000+0  37176-3 0  9992
2 42838  97.3681  18.2427 0007241 252.8330 107.2121 15.35956970492944
LEMUR-2-MONSON          
1 42839U 17042Q   26197.49124751  .00007839  00000+0  28284-3 0  9991
2 42839  97.4090  17.9272 0005395 239.7069 120.3638 15.28773757492643
LEMUR-2-FURIAUS         
1 42840U 17042R   26197.49750942  .00010084  00000+0  33733-3 0  9991
2 42840  97.3778  15.8960 0005913 324.3797  35.7049 15.31157870492699
LEMUR-2-PETERG          
1 42841U 17042S   26197.96646286  .00011210  00000+0  33162-3 0  9997
2 42841  97.3994  23.0718 0003427 212.2354 147.8680 15.35069947493007
LEMUR-2-DEMBITZ         
1 42842U 17042T   26198.23615466  .00008872  00000+0  29729-3 0  9999
2 42842  97.3830  19.6761 0005078 264.8229  95.2433 15.31146418492943
LEMUR-2-ZACHARY         
1 42845U 17042W   26198.30773833  .00029777  00000+0  48061-3 0  9990
2 42845  97.3571  30.6406 0002663 235.0924 125.0078 15.52848378493873
LEMUR-2-AMANDA-SVANTE   
1 48269U 21034B   26197.75371137  .00019624  00000+0  56092-3 0  9994
2 48269  97.5750 276.8554 0004656 139.3805 220.7786 15.36021211285594
LEMUR-2-SPECIAL-K       
1 48273U 21034F   26198.04885778  .00187699  00000+0  12202-2 0  9995
2 48273  97.5641 287.3062 0006292 212.8782 147.2092 15.75386170286379
LEMUR-2-EMBRIONOVIS     
1 56970U 23084AQ  26198.19656633  .00007666  00000+0  20547-3 0  9994
2 56970  97.6328 343.5695 0008515 198.7733 161.3198 15.38262005172298
LEMUR-2-DEVERILL-M-T    
1 57391U 23100F   26198.11374445  .00015224  00000+0  36985-3 0  9993
2 57391  99.4448 245.5500 0004726 288.8996  71.1731 15.41151764165855
LEMUR-2-BASS            
1 58259U 23174D   26198.22482117  .00009915  00000+0  21900-3 0  9997
2 58259  97.3844 283.3766 0007531  71.9840 288.2229 15.44036635149998
LEMUR-2-JK0903EM1407    
1 58336U 23174CJ  26197.79411387  .00017604  00000+0  28238-3 0  9990
2 58336  97.3923 289.1304 0003478  27.1565 332.9869 15.53123709150322
LEMUR-2-MJR092620       
1 58340U 23174CN  26198.20255621  .00010751  00000+0  22284-3 0  9990
2 58340  97.3975 288.8070 0005150  23.4875 336.6608 15.45908152150283
LEMUR-2-NIMBUS2000      
1 58899U 24022A   26197.56710173  .00013172  00000+0  31938-3 0  9994
2 58899  97.4075  47.9572 0008617  24.2441 335.9209 15.41153193136796
