{"fetched_at":"2026-07-17T17:37:58.322Z","source":"https://celestrak.org/NORAD/elements/gp.php?GROUP=spire&FORMAT=JSON","constellation":"spire","records":[{"OBJECT_NAME":"LEMUR-1","OBJECT_ID":"2014-033AL","EPOCH":"2026-07-17T04:55:23.351232","CLASSIFICATION_TYPE":"U","MEAN_MOTION":14.85340073,"ECCENTRICITY":0.00475615,"INCLINATION":97.7912,"RA_OF_ASC_NODE":347.3507,"ARG_OF_PERICENTER":341.2591,"MEAN_ANOMALY":18.6872,"EPHEMERIS_TYPE":0,"NORAD_CAT_ID":40044,"ELEMENT_SET_NO":999,"REV_AT_EPOCH":64992,"BSTAR":0.000089273057,"MEAN_MOTION_DOT":0.00000727,"MEAN_MOTION_DDOT":0},{"OBJECT_NAME":"LEMUR-2-GREENBERG","OBJECT_ID":"2017-042N","EPOCH":"2026-07-17T00:08:54.935232","CLASSIFICATION_TYPE":"U","MEAN_MOTION":15.32187524,"ECCENTRICITY":0.00072594,"INCLINATION":97.3832,"RA_OF_ASC_NODE":18.5143,"ARG_OF_PERICENTER":251.9389,"MEAN_ANOMALY":108.1062,"EPHEMERIS_TYPE":0,"NORAD_CAT_ID":42837,"ELEMENT_SET_NO":999,"REV_AT_EPOCH":49295,"BSTAR":0.00029799908,"MEAN_MOTION_DOT":0.00009191,"MEAN_MOTION_DDOT":0},{"OBJECT_NAME":"LEMUR-2-ANDIS","OBJECT_ID":"2017-042P","EPOCH":"2026-07-16T10:38:27.258720","CLASSIFICATION_TYPE":"U","MEAN_MOTION":15.3595697,"ECCENTRICITY":0.0007241,"INCLINATION":97.3681,"RA_OF_ASC_NODE":18.2427,"ARG_OF_PERICENTER":252.833,"MEAN_ANOMALY":107.2121,"EPHEMERIS_TYPE":0,"NORAD_CAT_ID":42838,"ELEMENT_SET_NO":999,"REV_AT_EPOCH":49294,"BSTAR":0.00037176,"MEAN_MOTION_DOT":0.00012949,"MEAN_MOTION_DDOT":0},{"OBJECT_NAME":"LEMUR-2-MONSON","OBJECT_ID":"2017-042Q","EPOCH":"2026-07-16T11:47:23.784864","CLASSIFICATION_TYPE":"U","MEAN_MOTION":15.28773757,"ECCENTRICITY":0.0005395,"INCLINATION":97.409,"RA_OF_ASC_NODE":17.9272,"ARG_OF_PERICENTER":239.7069,"MEAN_ANOMALY":120.3638,"EPHEMERIS_TYPE":0,"NORAD_CAT_ID":42839,"ELEMENT_SET_NO":999,"REV_AT_EPOCH":49264,"BSTAR":0.00028284,"MEAN_MOTION_DOT":0.00007839,"MEAN_MOTION_DDOT":0},{"OBJECT_NAME":"LEMUR-2-FURIAUS","OBJECT_ID":"2017-042R","EPOCH":"2026-07-16T11:56:24.813888","CLASSIFICATION_TYPE":"U","MEAN_MOTION":15.3115787,"ECCENTRICITY":0.0005913,"INCLINATION":97.3778,"RA_OF_ASC_NODE":15.896,"ARG_OF_PERICENTER":324.3797,"MEAN_ANOMALY":35.7049,"EPHEMERIS_TYPE":0,"NORAD_CAT_ID":42840,"ELEMENT_SET_NO":999,"REV_AT_EPOCH":49269,"BSTAR":0.00033733,"MEAN_MOTION_DOT":0.00010084,"MEAN_MOTION_DDOT":0},{"OBJECT_NAME":"LEMUR-2-PETERG","OBJECT_ID":"2017-042S","EPOCH":"2026-07-16T23:11:42.391104","CLASSIFICATION_TYPE":"U","MEAN_MOTION":15.35069947,"ECCENTRICITY":0.00034275,"INCLINATION":97.3994,"RA_OF_ASC_NODE":23.0718,"ARG_OF_PERICENTER":212.2354,"MEAN_ANOMALY":147.868,"EPHEMERIS_TYPE":0,"NORAD_CAT_ID":42841,"ELEMENT_SET_NO":999,"REV_AT_EPOCH":49300,"BSTAR":0.00033162146,"MEAN_MOTION_DOT":0.0001121,"MEAN_MOTION_DDOT":0},{"OBJECT_NAME":"LEMUR-2-DEMBITZ","OBJECT_ID":"2017-042T","EPOCH":"2026-07-17T05:40:03.762624","CLASSIFICATION_TYPE":"U","MEAN_MOTION":15.31146418,"ECCENTRICITY":0.0005078,"INCLINATION":97.383,"RA_OF_ASC_NODE":19.6761,"ARG_OF_PERICENTER":264.8229,"MEAN_ANOMALY":95.2433,"EPHEMERIS_TYPE":0,"NORAD_CAT_ID":42842,"ELEMENT_SET_NO":999,"REV_AT_EPOCH":49294,"BSTAR":0.00029729266,"MEAN_MOTION_DOT":0.00008872,"MEAN_MOTION_DDOT":0},{"OBJECT_NAME":"LEMUR-2-ZACHARY","OBJECT_ID":"2017-042W","EPOCH":"2026-07-17T07:23:08.591712","CLASSIFICATION_TYPE":"U","MEAN_MOTION":15.52848378,"ECCENTRICITY":0.00026638,"INCLINATION":97.3571,"RA_OF_ASC_NODE":30.6406,"ARG_OF_PERICENTER":235.0924,"MEAN_ANOMALY":125.0078,"EPHEMERIS_TYPE":0,"NORAD_CAT_ID":42845,"ELEMENT_SET_NO":999,"REV_AT_EPOCH":49387,"BSTAR":0.00048060548,"MEAN_MOTION_DOT":0.00029777,"MEAN_MOTION_DDOT":0},{"OBJECT_NAME":"LEMUR-2-AMANDA-SVANTE","OBJECT_ID":"2021-034B","EPOCH":"2026-07-16T18:05:20.662368","CLASSIFICATION_TYPE":"U","MEAN_MOTION":15.36021211,"ECCENTRICITY":0.00046563,"INCLINATION":97.575,"RA_OF_ASC_NODE":276.8554,"ARG_OF_PERICENTER":139.3805,"MEAN_ANOMALY":220.7786,"EPHEMERIS_TYPE":0,"NORAD_CAT_ID":48269,"ELEMENT_SET_NO":999,"REV_AT_EPOCH":28559,"BSTAR":0.00056091595,"MEAN_MOTION_DOT":0.00019624,"MEAN_MOTION_DDOT":0},{"OBJECT_NAME":"LEMUR-2-SPECIAL-K","OBJECT_ID":"2021-034F","EPOCH":"2026-07-17T01:10:21.312192","CLASSIFICATION_TYPE":"U","MEAN_MOTION":15.7538617,"ECCENTRICITY":0.00062926,"INCLINATION":97.5641,"RA_OF_ASC_NODE":287.3062,"ARG_OF_PERICENTER":212.8782,"MEAN_ANOMALY":147.2092,"EPHEMERIS_TYPE":0,"NORAD_CAT_ID":48273,"ELEMENT_SET_NO":999,"REV_AT_EPOCH":28637,"BSTAR":0.0012202358,"MEAN_MOTION_DOT":0.00187699,"MEAN_MOTION_DDOT":0},{"OBJECT_NAME":"LEMUR-2-EMBRIONOVIS","OBJECT_ID":"2023-084AQ","EPOCH":"2026-07-17T04:43:03.330912","CLASSIFICATION_TYPE":"U","MEAN_MOTION":15.38262005,"ECCENTRICITY":0.00085153,"INCLINATION":97.6328,"RA_OF_ASC_NODE":343.5695,"ARG_OF_PERICENTER":198.7733,"MEAN_ANOMALY":161.3198,"EPHEMERIS_TYPE":0,"NORAD_CAT_ID":56970,"ELEMENT_SET_NO":999,"REV_AT_EPOCH":17229,"BSTAR":0.00020547227,"MEAN_MOTION_DOT":0.00007666,"MEAN_MOTION_DDOT":0},{"OBJECT_NAME":"LEMUR-2-DEVERILL-M-T","OBJECT_ID":"2023-100F","EPOCH":"2026-07-17T02:43:47.520480","CLASSIFICATION_TYPE":"U","MEAN_MOTION":15.41151764,"ECCENTRICITY":0.00047268,"INCLINATION":99.4448,"RA_OF_ASC_NODE":245.55,"ARG_OF_PERICENTER":288.8996,"MEAN_ANOMALY":71.1731,"EPHEMERIS_TYPE":0,"NORAD_CAT_ID":57391,"ELEMENT_SET_NO":999,"REV_AT_EPOCH":16585,"BSTAR":0.00036984915,"MEAN_MOTION_DOT":0.00015224,"MEAN_MOTION_DDOT":0},{"OBJECT_NAME":"LEMUR-2-BASS","OBJECT_ID":"2023-174D","EPOCH":"2026-07-17T05:23:44.549088","CLASSIFICATION_TYPE":"U","MEAN_MOTION":15.44036635,"ECCENTRICITY":0.00075316,"INCLINATION":97.3844,"RA_OF_ASC_NODE":283.3766,"ARG_OF_PERICENTER":71.984,"MEAN_ANOMALY":288.2229,"EPHEMERIS_TYPE":0,"NORAD_CAT_ID":58259,"ELEMENT_SET_NO":999,"REV_AT_EPOCH":14999,"BSTAR":0.00021900035,"MEAN_MOTION_DOT":0.00009915,"MEAN_MOTION_DDOT":0},{"OBJECT_NAME":"LEMUR-2-JK0903EM1407","OBJECT_ID":"2023-174CJ","EPOCH":"2026-07-16T19:03:31.438368","CLASSIFICATION_TYPE":"U","MEAN_MOTION":15.53123709,"ECCENTRICITY":0.00034787,"INCLINATION":97.3923,"RA_OF_ASC_NODE":289.1304,"ARG_OF_PERICENTER":27.1565,"MEAN_ANOMALY":332.9869,"EPHEMERIS_TYPE":0,"NORAD_CAT_ID":58336,"ELEMENT_SET_NO":999,"REV_AT_EPOCH":15032,"BSTAR":0.00028238283,"MEAN_MOTION_DOT":0.00017604,"MEAN_MOTION_DDOT":0},{"OBJECT_NAME":"LEMUR-2-MJR092620","OBJECT_ID":"2023-174CN","EPOCH":"2026-07-17T04:51:40.856544","CLASSIFICATION_TYPE":"U","MEAN_MOTION":15.45908152,"ECCENTRICITY":0.00051509,"INCLINATION":97.3975,"RA_OF_ASC_NODE":288.807,"ARG_OF_PERICENTER":23.4875,"MEAN_ANOMALY":336.6608,"EPHEMERIS_TYPE":0,"NORAD_CAT_ID":58340,"ELEMENT_SET_NO":999,"REV_AT_EPOCH":15028,"BSTAR":0.00022283958,"MEAN_MOTION_DOT":0.00010751,"MEAN_MOTION_DDOT":0},{"OBJECT_NAME":"LEMUR-2-NIMBUS2000","OBJECT_ID":"2024-022A","EPOCH":"2026-07-16T13:36:37.589472","CLASSIFICATION_TYPE":"U","MEAN_MOTION":15.41153193,"ECCENTRICITY":0.00086176,"INCLINATION":97.4075,"RA_OF_ASC_NODE":47.9572,"ARG_OF_PERICENTER":24.2441,"MEAN_ANOMALY":335.9209,"EPHEMERIS_TYPE":0,"NORAD_CAT_ID":58899,"ELEMENT_SET_NO":999,"REV_AT_EPOCH":13679,"BSTAR":0.00031937662,"MEAN_MOTION_DOT":0.00013172,"MEAN_MOTION_DDOT":0}]}
